ASTRA 2E                
1 39285U 13056A   26192.92961583  .00000154  00000+0  00000+0 0  9993
2 39285   0.0816 309.2325 0002785 177.5092 166.2476  1.00273420 46664
FM-6                    
1 39360U 13058A   26192.68443999 -.00000011  00000+0  00000+0 0  9991
2 39360   0.0158  50.9126 0001273 129.5499 239.1665  1.00270766 46317
RADUGA-1M 3             
1 39375U 13062A   26192.92961583  .00000151  00000+0  00000+0 0  9997
2 39375   6.0186  72.0353 0002009 272.8257 314.6079  1.00270625 46355
SES-8                   
1 39460U 13071A   26192.91230365 -.00000265  00000+0  00000+0 0  9995
2 39460   0.0487 262.3375 0002596 208.7496 242.1547  1.00270805 44678
INMARSAT 5-F1           
1 39476U 13073A   26192.93375994  .00000032  00000+0  00000+0 0  9995
2 39476   0.0180  32.8775 0000526 284.1984  11.5456  1.00270753 45827
TKSAT-1 (TUPAC KATARI)  
1 39481U 13075A   26192.83284932 -.00000190  00000+0  00000+0 0  9999
2 39481   0.0554 233.2904 0002345 234.3877  34.6879  1.00271110 45854
EXPRESS-AM5             
1 39487U 13077A   26193.02041444 -.00000277  00000+0  00000+0 0  9994
2 39487   0.0272 284.5090 0000225 334.3614 178.4255  1.00271558 46602
GSAT-14                 
1 39498U 14001A   26192.89836321  .00000000  00000+0  00000+0 0  9997
2 39498   0.0246  53.1414 0001904 161.3181 112.7250  1.00270061 45622
THAICOM 6               
1 39500U 14002A   26192.89836321 -.00000117  00000+0  00000+0 0  9992
2 39500   0.0430 118.2361 0004243   5.5799 207.8658  1.00273420 45707
TDRS 12                 
1 39504U 14004A   26192.84194935 -.00000268  00000+0  00000+0 0  9998
2 39504   4.0013  19.4772 0004300 204.2667 328.2202  1.00273535 44525
ABS-2                   
1 39508U 14006A   26192.89227271 -.00000082  00000+0  00000+0 0  9993
2 39508   0.0215 300.9835 0003281 156.7496 228.1875  1.00271034 45522
ATHENA-FIDUS            
1 39509U 14006B   26192.92961583  .00000158  00000+0  00000+0 0  9992
2 39509   0.0161 100.6099 0001260  14.4248 187.2512  1.00269877 45334
TURKSAT 4A              
1 39522U 14007A   26192.92405799  .00000150  00000+0  00000+0 0  9992
2 39522   0.0658 285.8236 0001200 325.5568  53.0907  1.00272336 45213
EXPRESS-AT1             
1 39612U 14010A   26192.90183788 -.00000001  00000+0  00000+0 0  9991
2 39612   0.3176  85.4702 0004408  54.5168 179.9200  1.00308639 45064
EXPRESS-AT2             
1 39613U 14010B   26192.86117810  .00000083  00000+0  00000+0 0  9999
2 39613   0.0150 349.5603 0000680 314.1205 352.0973  1.00272122 44745
AMAZONAS 4A             
1 39616U 14011A   26192.83544933 -.00000248  00000+0  00000+0 0  9994
2 39616   0.0605 202.5420 0004628 294.5739  19.3954  1.00270527 44960
ASTRA 5B                
1 39617U 14011B   26192.94304444  .00000141  00000+0  00000+0 0  9999
2 39617   0.0842 298.4202 0001993 190.6422 163.7786  1.00272606 44915
IRNSS-1B                
1 39635U 14017A   26191.72026316  .00000149  00000+0  00000+0 0  9997
2 39635  28.8825 239.9967 0022327 191.5584 171.4704  1.00274378 45033
LUCH-5V                 
1 39727U 14023A   26192.72797284 -.00000269  00000+0  00000+0 0  9990
2 39727   5.1894  69.4840 0002022  77.0115 139.8925  1.00275169 44607
KAZSAT-3                
1 39728U 14023B   26192.71016914  .00000066  00000+0  00000+0 0  9998
2 39728   0.0109   2.2983 0000262 279.6662 321.8066  1.00270445 42705
EUTELSAT 3B             
1 39773U 14030A   26192.85072385  .00000024  00000+0  00000+0 0  9999
2 39773   0.0609 352.9845 0004086 120.9218 125.1992  1.00270018 44313
ASIASAT 8 (AMOS-7)      
1 40107U 14046A   26192.91907956 -.00000329  00000+0  00000+0 0  9996
2 40107   0.0141   7.4497 0001284 117.0941 241.4415  1.00268924102397
ASIASAT 6               
1 40141U 14052A   26192.97544551  .00000000  00000+0  00000+0 0  9990
2 40141   0.0286  49.4664 0000711 110.9055 240.5836  1.00270280 43321
OPTUS 10                
1 40146U 14054A   26191.46610286 -.00000137  00000+0  00000+0 0  9991
2 40146   0.0483  69.5916 0001946  41.3086 141.2837  1.00271044 43260
MEASAT-3B               
1 40147U 14054B   26192.86819814 -.00000237  00000+0  00000+0 0  9996
2 40147   0.0378  44.1402 0003475  22.6304 267.0408  1.00270487 43156
HIMAWARI-8              
1 40267U 14060A   26192.87790485 -.00000271  00000+0  00000+0 0  9997
2 40267   0.0221 306.6640 0001048 222.5270 217.2953  1.00272552 43004
IRNSS-1C                
1 40269U 14061A   26192.89061407 -.00000165  00000+0  00000+0 0  9999
2 40269   6.5787  88.4618 0022134   5.0900 239.8922  1.00272869 42935
INTELSAT 30 (IS-30)     
1 40271U 14062A   26192.83128931 -.00000147  00000+0  00000+0 0  9993
2 40271   0.0177  48.7867 0001368 332.6147 112.5503  1.00271720  7043
ARSAT 1                 
1 40272U 14062B   26192.97425263 -.00000256  00000+0  00000+0 0  9998
2 40272   0.0453 284.9941 0001714 184.9793  98.8310  1.00270907 42876
EUTELSAT 53A            
1 40277U 14064A   26192.21895435  .00000105  00000+0  00000+0 0  9996
2 40277   0.0142 315.3160 0001701 242.3457 223.2816  1.00269242 41807
GSAT-16                 
1 40332U 14078A   26192.90738978  .00000089  00000+0  00000+0 0  9998
2 40332   0.0159 308.3428 0007243 143.7266 219.4750  1.00272317 42357
DIRECTV 14              
1 40333U 14078B   26192.83033597 -.00000121  00000+0  00000+0 0  9994
2 40333   0.0111  39.8160 0000274 268.1246 181.4680  1.00269938 42290
