OBJECT_NAME,OBJECT_ID,EPOCH,MEAN_MOTION,ECCENTRICITY,INCLINATION,RA_OF_ASC_NODE,ARG_OF_PERICENTER,MEAN_ANOMALY,EPHEMERIS_TYPE,CLASSIFICATION_TYPE,NORAD_CAT_ID,ELEMENT_SET_NO,REV_AT_EPOCH,BSTAR,MEAN_MOTION_DOT,MEAN_MOTION_DDOT
ASTRA 2E,2013-056A,2026-07-11T22:18:38.807712,1.00273420,.00027851,0.0816,309.2325,177.5092,166.2476,0,U,39285,999,4666,0,.154E-5,0
FM-6,2013-058A,2026-07-11T16:25:35.615136,1.00270766,.00012731,0.0158,50.9126,129.5499,239.1665,0,U,39360,999,4631,0,-.11E-6,0
RADUGA-1M 3,2013-062A,2026-07-11T22:18:38.807712,1.00270625,.00020097,6.0186,72.0353,272.8257,314.6079,0,U,39375,999,4635,0,.151E-5,0
SES-8,2013-071A,2026-07-11T21:53:43.035360,1.00270805,.00025968,0.0487,262.3375,208.7496,242.1547,0,U,39460,999,4467,0,-.265E-5,0
INMARSAT 5-F1,2013-073A,2026-07-11T22:24:36.858816,1.00270753,.00005269,0.0180,32.8775,284.1984,11.5456,0,U,39476,999,4582,0,.32E-6,0
TKSAT-1 (TUPAC KATARI),2013-075A,2026-07-11T19:59:18.181248,1.00271110,.00023453,0.0554,233.2904,234.3877,34.6879,0,U,39481,999,4585,0,-.19E-5,0
EXPRESS-AM5,2013-077A,2026-07-12T00:29:23.807616,1.00271558,.0000225,0.0272,284.5090,334.3614,178.4255,0,U,39487,999,4660,0,-.277E-5,0
GSAT-14,2014-001A,2026-07-11T21:33:38.581344,1.00270061,.00019049,0.0246,53.1414,161.3181,112.7250,0,U,39498,999,4562,0,0,0
THAICOM 6,2014-002A,2026-07-11T21:33:38.581344,1.00273420,.00042435,0.0430,118.2361,5.5799,207.8658,0,U,39500,999,4570,0,-.117E-5,0
TDRS 12,2014-004A,2026-07-11T20:12:24.423840,1.00273535,.00043003,4.0013,19.4772,204.2667,328.2202,0,U,39504,999,4452,0,-.268E-5,0
ABS-2,2014-006A,2026-07-11T21:24:52.362144,1.00271034,.00032812,0.0215,300.9835,156.7496,228.1875,0,U,39508,999,4552,0,-.82E-6,0
ATHENA-FIDUS,2014-006B,2026-07-11T22:18:38.807712,1.00269877,.00012604,0.0161,100.6099,14.4248,187.2512,0,U,39509,999,4533,0,.158E-5,0
TURKSAT 4A,2014-007A,2026-07-11T22:10:38.610336,1.00272336,.00012001,0.0658,285.8236,325.5568,53.0907,0,U,39522,999,4521,0,.15E-5,0
EXPRESS-AT1,2014-010A,2026-07-11T21:38:38.792832,1.00308639,.00044085,0.3176,85.4702,54.5168,179.9200,0,U,39612,999,4506,0,-.1E-7,0
EXPRESS-AT2,2014-010B,2026-07-11T20:40:05.787840,1.00272122,.00006803,0.0150,349.5603,314.1205,352.0973,0,U,39613,999,4474,0,.83E-6,0
AMAZONAS 4A,2014-011A,2026-07-11T20:03:02.822112,1.00270527,.00046283,0.0605,202.5420,294.5739,19.3954,0,U,39616,999,4496,0,-.248E-5,0
ASTRA 5B,2014-011B,2026-07-11T22:37:59.039616,1.00272606,.00019933,0.0842,298.4202,190.6422,163.7786,0,U,39617,999,4491,0,.141E-5,0
IRNSS-1B,2014-017A,2026-07-10T17:17:10.737024,1.00274378,.00223275,28.8825,239.9967,191.5584,171.4704,0,U,39635,999,4503,0,.149E-5,0
LUCH-5V,2014-023A,2026-07-11T17:28:16.853376,1.00275169,.00020223,5.1894,69.4840,77.0115,139.8925,0,U,39727,999,4460,0,-.269E-5,0
KAZSAT-3,2014-023B,2026-07-11T17:02:38.613696,1.00270445,.00002629,0.0109,2.2983,279.6662,321.8066,0,U,39728,999,4270,0,.66E-6,0
EUTELSAT 3B,2014-030A,2026-07-11T20:25:02.540640,1.00270018,.00040861,0.0609,352.9845,120.9218,125.1992,0,U,39773,999,4431,0,.24E-6,0
ASIASAT 8 (AMOS-7),2014-046A,2026-07-11T22:03:28.473984,1.00268924,.00012848,0.0141,7.4497,117.0941,241.4415,0,U,40107,999,10239,0,-.329E-5,0
ASIASAT 6,2014-052A,2026-07-11T23:24:38.492064,1.00270280,.00007114,0.0286,49.4664,110.9055,240.5836,0,U,40141,999,4332,0,0,0
OPTUS 10,2014-054A,2026-07-10T11:11:11.287104,1.00271044,.00019462,0.0483,69.5916,41.3086,141.2837,0,U,40146,999,4326,0,-.137E-5,0
MEASAT-3B,2014-054B,2026-07-11T20:50:12.319296,1.00270487,.00034755,0.0378,44.1402,22.6304,267.0408,0,U,40147,999,4315,0,-.237E-5,0
HIMAWARI-8,2014-060A,2026-07-11T21:04:10.979040,1.00272552,.00010489,0.0221,306.6640,222.5270,217.2953,0,U,40267,999,4300,0,-.271E-5,0
IRNSS-1C,2014-061A,2026-07-11T21:22:29.055648,1.00272869,.00221348,6.5787,88.4618,5.0900,239.8922,0,U,40269,999,4293,0,-.165E-5,0
INTELSAT 30 (IS-30),2014-062A,2026-07-11T19:57:03.396384,1.00271720,.00013682,0.0177,48.7867,332.6147,112.5503,0,U,40271,999,704,0,-.147E-5,0
ARSAT 1,2014-062B,2026-07-11T23:22:55.427232,1.00270907,.00017149,0.0453,284.9941,184.9793,98.8310,0,U,40272,999,4287,0,-.256E-5,0
EUTELSAT 53A,2014-064A,2026-07-11T05:15:17.655840,1.00269242,.00017013,0.0142,315.3160,242.3457,223.2816,0,U,40277,999,4180,0,.105E-5,0
GSAT-16,2014-078A,2026-07-11T21:46:38.476992,1.00272317,.00072432,0.0159,308.3428,143.7266,219.4750,0,U,40332,999,4235,0,.89E-6,0
DIRECTV 14,2014-078B,2026-07-11T19:55:41.027808,1.00269938,.00002741,0.0111,39.8160,268.1246,181.4680,0,U,40333,999,4229,0,-.121E-5,0
